[Satellite]
VERSION=1.1
NAME=ELFIN-B
NICKNAME=ELFIN-B
TLE1=1 43616U 18070D   20157.71879535  .00003548  00000-0  87837-4 0  9993
TLE2=2 43616  93.0155 149.6674 0017299  33.5111 326.7234 15.40328245 96718
STATUS=0
